GLOBALSTAR M084         
1 38040U 11080A   26016.73273262 -.00000120  00000+0 -89210-4 0  9990
2 38040  52.0004 118.3643 0001057 121.1900  43.5930 12.62267073649639
GLOBALSTAR M080         
1 38041U 11080B   26016.70412898 -.00000122  00000+0 -99246-4 0  9990
2 38041  52.0056 120.1174 0000356 118.1242  46.3498 12.62265396649752
GLOBALSTAR M082         
1 38042U 11080C   26016.87949274 -.00000091  00000+0  72571-4 0  9998
2 38042  52.0082  75.0689 0000203 121.8368  49.6621 12.62266655650487
GLOBALSTAR M092         
1 38043U 11080D   26016.84919500 -.00000110  00000+0 -35770-4 0  9998
2 38043  52.0066 165.5481 0001000 101.1875  52.4632 12.62269434648934
GLOBALSTAR M090         
1 38044U 11080E   26016.90602015 -.00000087  00000+0  94697-4 0  9991
2 38044  52.0128  68.8956 0000464 102.9786  67.9058 12.62265855650602
GLOBALSTAR M086         
1 38045U 11080F   26016.85080050 -.00000091  00000+0  72866-4 0  9994
2 38045  51.9904  69.2399 0001508  86.0835  85.5856 12.62282087650547
GLOBALSTAR M097         
1 39072U 13005A   26016.92075403 -.00000100  00000+0  20878-4 0  9995
2 39072  52.0070 343.8037 0000548  55.9732 304.1187 12.62268176597807
GLOBALSTAR M093         
1 39073U 13005B   26016.89458163 -.00000096  00000+0  42760-4 0  9998
2 39073  52.0129 337.1740 0000774  39.9516 320.1408 12.62271646597757
